{"type":"FeatureCollection","features":[{"type":"Feature","properties":{"name":"파주시","focus":false},"geometry":{"type":"Polygon","coordinates":[[[126.9725,37.9421],[126.9747,37.943],[126.9763,37.9445],[126.9767,37.9478],[126.9776,37.9507],[126.9805,37.9532],[126.9837,37.9547],[126.9885,37.9565],[126.9883,37.9602],[126.9883,37.9626],[126.9893,37.9646],[126.9912,37.9662],[126.9952,37.9676],[126.9975,37.9675],[127.0017,37.9683],[127.0037,37.9711],[127.0028,37.9735],[127.0047,37.9753],[127.0071,37.9739],[127.0105,37.9754],[127.0121,37.9775],[127.0112,37.9798],[127.0121,37.983],[127.0155,37.9855],[127.0171,37.987],[127.0155,37.9902],[127.0132,37.9937],[127.0101,37.9931],[127.0074,37.994],[127.0049,37.9939],[127.0019,37.9961],[126.9996,37.9972],[126.9976,38.0008],[126.995,38.0014],[126.9933,38.0037],[126.9914,38.006],[126.9892,38.0078],[126.9894,38.0106],[126.9868,38.0098],[126.9843,38.0094],[126.9822,38.007],[126.979,38.0084],[126.9753,38.0069],[126.9726,38.0073],[126.9718,38.0051],[126.9694,38.0027],[126.9664,38.0008],[126.9602,37.9964],[126.9577,37.9919],[126.9552,37.9896],[126.9532,37.9883],[126.9496,37.9865],[126.9439,37.9832],[126.9382,37.9811],[126.9325,37.9818],[126.9268,37.9834],[126.9211,37.9855],[126.9178,37.9863],[126.9121,37.9883],[126.9097,37.9883],[126.9097,37.9912],[126.9062,37.9936],[126.904,37.9944],[126.8956,37.9949],[126.8929,37.9933],[126.8922,37.9847],[126.8933,37.9775],[126.8943,37.9741],[126.8956,37.9718],[126.8955,37.9697],[126.8918,37.9674],[126.8862,37.9661],[126.8813,37.967],[126.8756,37.9694],[126.8725,37.9711],[126.8701,37.9738],[126.8676,37.9758],[126.86,37.981],[126.8585,37.9824],[126.8528,37.986],[126.8491,37.9866],[126.8471,37.9861],[126.8451,37.9846],[126.8414,37.9815],[126.8401,37.979],[126.8391,37.9755],[126.8382,37.9666],[126.8375,37.963],[126.8358,37.9602],[126.8358,37.9641],[126.8328,37.9636],[126.8304,37.9618],[126.8283,37.9598],[126.8251,37.9593],[126.8222,37.9584],[126.8181,37.9601],[126.8185,37.9636],[126.8174,37.9661],[126.8154,37.9667],[126.8141,37.9688],[126.8116,37.9688],[126.8092,37.969],[126.8075,37.971],[126.8057,37.9729],[126.8093,37.9732],[126.8093,37.9753],[126.8066,37.9758],[126.8065,37.978],[126.8062,37.9802],[126.8047,37.9817],[126.8027,37.9823],[126.8009,37.9867],[126.8008,37.9897],[126.8005,37.9925],[126.7972,37.9928],[126.7937,37.9923],[126.7925,37.9901],[126.7901,37.9881],[126.787,37.9859],[126.7861,37.9841],[126.7837,37.9822],[126.7821,37.9805],[126.7804,37.982],[126.7763,37.9839],[126.7727,37.9844],[126.7718,37.9824],[126.7739,37.9813],[126.7748,37.9792],[126.7724,37.9784],[126.7702,37.9806],[126.7694,37.9826],[126.7672,37.9825],[126.7654,37.9843],[126.7631,37.9851],[126.7605,37.9834],[126.7577,37.9834],[126.7556,37.9829],[126.7538,37.9816],[126.7517,37.9806],[126.7497,37.9794],[126.7482,37.9763],[126.7447,37.9738],[126.7416,37.9727],[126.7395,37.9715],[126.7383,37.9694],[126.7376,37.9664],[126.7348,37.9676],[126.7304,37.9688],[126.7278,37.9687],[126.7252,37.9665],[126.723,37.966],[126.7194,37.965],[126.7173,37.9662],[126.7167,37.9689],[126.712,37.9684],[126.7095,37.9706],[126.7094,37.9736],[126.7075,37.9753],[126.7037,37.9748],[126.7018,37.9725],[126.7007,37.9691],[126.6973,37.9689],[126.6946,37.967],[126.6923,37.9661],[126.6912,37.9634],[126.6896,37.9615],[126.6877,37.9593],[126.6873,37.9572],[126.6813,37.9581],[126.6792,37.9558],[126.6769,37.9559],[126.6748,37.9562],[126.671,37.9552],[126.6709,37.9531],[126.672,37.9482],[126.6698,37.946],[126.6698,37.9432],[126.6696,37.941],[126.672,37.9399],[126.6693,37.9374],[126.6675,37.9345],[126.6668,37.9325],[126.6679,37.9266],[126.6661,37.9234],[126.6656,37.921],[126.6682,37.9162],[126.6719,37.9149],[126.676,37.9141],[126.6785,37.914],[126.6802,37.9157],[126.6825,37.9122],[126.6804,37.9112],[126.6755,37.9066],[126.6771,37.9034],[126.6774,37.9001],[126.6773,37.8978],[126.6766,37.8959],[126.674,37.8932],[126.6735,37.8906],[126.6722,37.8888],[126.6701,37.888],[126.674,37.8864],[126.6723,37.8831],[126.6748,37.8815],[126.6764,37.8845],[126.6797,37.8847],[126.6787,37.8821],[126.6814,37.8803],[126.6796,37.8784],[126.6768,37.8778],[126.673,37.8781],[126.6748,37.8747],[126.6768,37.8735],[126.6743,37.8726],[126.6726,37.8701],[126.6754,37.87],[126.678,37.8705],[126.6804,37.8706],[126.6815,37.8729],[126.6834,37.8741],[126.6866,37.8724],[126.6885,37.8703],[126.6915,37.868],[126.6885,37.865],[126.6875,37.862],[126.6857,37.8583],[126.6825,37.8548],[126.68,37.8528],[126.6797,37.8488],[126.6796,37.846],[126.6773,37.8445],[126.6723,37.8448],[126.6701,37.8455],[126.6663,37.8436],[126.6627,37.8432],[126.6602,37.8428],[126.6593,37.8403],[126.6658,37.8362],[126.6698,37.8345],[126.6714,37.8293],[126.6687,37.8149],[126.6673,37.8077],[126.6662,37.8005],[126.6655,37.7969],[126.6653,37.7932],[126.6642,37.7896],[126.6628,37.7824],[126.6651,37.7693],[126.6754,37.753],[126.6762,37.7499],[126.6769,37.7466],[126.6781,37.7407],[126.6797,37.7342],[126.6803,37.7317],[126.6802,37.7274],[126.6782,37.7175],[126.6748,37.7115],[126.674,37.7003],[126.6759,37.6995],[126.6802,37.6974],[126.6829,37.696],[126.687,37.6924],[126.6899,37.6886],[126.6916,37.6897],[126.6934,37.6911],[126.6962,37.6913],[126.6947,37.6927],[126.6964,37.6939],[126.6982,37.6948],[126.7001,37.6964],[126.7025,37.6965],[126.7048,37.6968],[126.7069,37.6976],[126.7086,37.6987],[126.711,37.6997],[126.7141,37.6996],[126.7164,37.7002],[126.7182,37.7017],[126.7205,37.7017],[126.7225,37.7024],[126.7244,37.7038],[126.7266,37.7037],[126.7286,37.7044],[126.7307,37.705],[126.7331,37.7049],[126.7353,37.7046],[126.7373,37.7044],[126.7398,37.7063],[126.7415,37.7052],[126.7442,37.705],[126.7462,37.7046],[126.748,37.7034],[126.7516,37.7041],[126.7548,37.7049],[126.7571,37.7039],[126.7592,37.7034],[126.7613,37.7037],[126.7638,37.7044],[126.7661,37.7064],[126.7721,37.7048],[126.7741,37.705],[126.7736,37.7074],[126.7741,37.7097],[126.7752,37.7122],[126.777,37.7133],[126.7791,37.7167],[126.7818,37.7173],[126.7845,37.7191],[126.7855,37.7209],[126.7875,37.7229],[126.7899,37.7236],[126.792,37.7245],[126.7939,37.7263],[126.7953,37.7289],[126.7955,37.7309],[126.7954,37.7334],[126.7946,37.7353],[126.7965,37.736],[126.7983,37.737],[126.8005,37.735],[126.8013,37.733],[126.8006,37.7308],[126.8034,37.7287],[126.8048,37.7272],[126.807,37.7269],[126.8096,37.7265],[126.8114,37.7245],[126.8133,37.7238],[126.8164,37.7254],[126.8185,37.7256],[126.8215,37.7256],[126.8225,37.7284],[126.8242,37.7268],[126.8265,37.7266],[126.8291,37.7277],[126.8313,37.7288],[126.8331,37.7274],[126.8336,37.7254],[126.8347,37.7274],[126.8368,37.7275],[126.8389,37.7285],[126.8407,37.7305],[126.8428,37.7318],[126.8459,37.7324],[126.8482,37.7338],[126.8526,37.7347],[126.856,37.7356],[126.8589,37.7342],[126.8605,37.7329],[126.8632,37.7326],[126.8656,37.7318],[126.8671,37.73],[126.8699,37.7292],[126.873,37.7292],[126.8734,37.7264],[126.8753,37.7254],[126.8776,37.7262],[126.8798,37.7261],[126.8821,37.7259],[126.8853,37.7248],[126.8872,37.7237],[126.8895,37.7238],[126.8916,37.7257],[126.8941,37.7271],[126.8993,37.7269],[126.9019,37.7281],[126.902,37.7303],[126.903,37.7334],[126.9013,37.7356],[126.902,37.7384],[126.903,37.7405],[126.9057,37.7426],[126.9079,37.7441],[126.9092,37.7467],[126.9114,37.747],[126.9147,37.7474],[126.9167,37.7479],[126.9197,37.747],[126.9224,37.747],[126.9254,37.7481],[126.9283,37.7484],[126.9308,37.7503],[126.9316,37.7529],[126.9311,37.7552],[126.929,37.756],[126.9286,37.7582],[126.9296,37.7604],[126.9309,37.7631],[126.9328,37.767],[126.9328,37.7691],[126.9342,37.7713],[126.9353,37.7736],[126.9353,37.7759],[126.9344,37.7786],[126.9339,37.7806],[126.9368,37.7841],[126.9378,37.7863],[126.9358,37.7878],[126.9329,37.7885],[126.9282,37.786],[126.9252,37.786],[126.9231,37.787],[126.9208,37.7881],[126.9187,37.7902],[126.9166,37.7901],[126.913,37.791],[126.9086,37.7913],[126.9063,37.7906],[126.9036,37.7907],[126.9047,37.7924],[126.9054,37.7969],[126.9061,37.7988],[126.906,37.8024],[126.9091,37.8043],[126.9111,37.8042],[126.9116,37.8063],[126.9113,37.8083],[126.9091,37.8104],[126.9088,37.8126],[126.9095,37.8146],[126.91,37.8167],[126.908,37.8176],[126.9064,37.8192],[126.9043,37.8221],[126.902,37.8248],[126.9028,37.8267],[126.9049,37.8272],[126.9072,37.8281],[126.9102,37.8285],[126.912,37.831],[126.9127,37.8347],[126.9124,37.8374],[126.9121,37.84],[126.914,37.8411],[126.9162,37.8411],[126.9225,37.8416],[126.9251,37.8416],[126.9265,37.839],[126.9302,37.8385],[126.9324,37.8384],[126.9361,37.8406],[126.9356,37.8429],[126.9341,37.8449],[126.9351,37.8471],[126.9356,37.8499],[126.9382,37.8518],[126.9385,37.8552],[126.94,37.8577],[126.9417,37.8603],[126.9426,37.8624],[126.9457,37.8658],[126.9461,37.8683],[126.9445,37.8697],[126.9456,37.8719],[126.9447,37.8744],[126.9457,37.8782],[126.9456,37.8809],[126.9472,37.8832],[126.9464,37.8868],[126.9455,37.8889],[126.9458,37.8909],[126.9483,37.895],[126.9476,37.8974],[126.9463,37.899],[126.9468,37.9016],[126.9483,37.9033],[126.9496,37.9062],[126.952,37.9078],[126.9537,37.9091],[126.9547,37.9113],[126.9537,37.9131],[126.9512,37.9155],[126.9493,37.9173],[126.9515,37.9192],[126.9544,37.9204],[126.9566,37.9218],[126.9601,37.9201],[126.9621,37.9219],[126.9615,37.9239],[126.9631,37.9259],[126.9644,37.9276],[126.9644,37.9314],[126.9646,37.9337],[126.9647,37.9379],[126.9667,37.9392],[126.969,37.9387],[126.9697,37.941],[126.9716,37.9421],[126.9725,37.9421]]]}},{"type":"Feature","properties":{"name":"연천군","focus":true},"geometry":{"type":"Polygon","coordinates":[[[127.1032,38.2808],[127.1006,38.281],[127.0979,38.2811],[127.0954,38.281],[127.0922,38.2822],[127.0921,38.2802],[127.0897,38.2797],[127.0863,38.2786],[127.083,38.2802],[127.0809,38.279],[127.0781,38.2789],[127.0758,38.278],[127.0764,38.2749],[127.0765,38.2722],[127.0743,38.2716],[127.0713,38.2681],[127.0684,38.2667],[127.0662,38.2654],[127.0649,38.2637],[127.0621,38.2626],[127.0579,38.2617],[127.0554,38.2591],[127.0526,38.2593],[127.0506,38.2591],[127.0469,38.2596],[127.0417,38.2584],[127.0402,38.2567],[127.0386,38.2543],[127.0381,38.2523],[127.0366,38.2498],[127.0312,38.2481],[127.0281,38.245],[127.0262,38.2459],[127.0242,38.2446],[127.0229,38.2463],[127.021,38.2455],[127.0225,38.2436],[127.0235,38.2416],[127.0206,38.2391],[127.0154,38.2375],[127.0134,38.2361],[127.0118,38.2316],[127.0108,38.2289],[127.0093,38.2262],[127.0064,38.2258],[127.0051,38.2219],[127.0029,38.2229],[127.0003,38.2229],[126.9968,38.2262],[126.9946,38.2267],[126.9937,38.2247],[126.9933,38.2278],[126.9916,38.2295],[126.9898,38.2285],[126.9902,38.2261],[126.9873,38.2272],[126.9836,38.2267],[126.9813,38.2266],[126.9799,38.2246],[126.9789,38.2227],[126.9812,38.2197],[126.9801,38.2175],[126.9817,38.215],[126.9837,38.2133],[126.9837,38.2106],[126.9802,38.208],[126.9798,38.2053],[126.9773,38.2045],[126.9744,38.2045],[126.9744,38.2009],[126.973,38.199],[126.9696,38.1994],[126.9665,38.199],[126.9665,38.1929],[126.9639,38.1922],[126.966,38.188],[126.9679,38.1867],[126.9678,38.1836],[126.9688,38.1805],[126.9658,38.1778],[126.9657,38.1748],[126.9656,38.1711],[126.9637,38.1694],[126.961,38.1685],[126.9594,38.1661],[126.9576,38.1652],[126.9551,38.1639],[126.9532,38.1622],[126.9526,38.1649],[126.9507,38.1635],[126.9494,38.1596],[126.9516,38.1578],[126.955,38.1563],[126.9596,38.1535],[126.9631,38.1502],[126.9651,38.149],[126.968,38.1475],[126.9694,38.1448],[126.9665,38.1391],[126.9609,38.1397],[126.9609,38.1361],[126.9588,38.1361],[126.9555,38.1349],[126.9528,38.1349],[126.9501,38.1357],[126.9461,38.1344],[126.9403,38.1339],[126.9389,38.1323],[126.9361,38.1325],[126.9323,38.1317],[126.9321,38.1293],[126.9311,38.1273],[126.929,38.1282],[126.9265,38.1284],[126.9225,38.1321],[126.9206,38.1343],[126.9171,38.1367],[126.9139,38.1361],[126.9116,38.1369],[126.9097,38.1378],[126.907,38.1376],[126.9046,38.1375],[126.9021,38.1354],[126.8989,38.1328],[126.8951,38.1307],[126.8923,38.1303],[126.888,38.1281],[126.8878,38.1261],[126.8855,38.1242],[126.8853,38.122],[126.8846,38.12],[126.8841,38.1167],[126.882,38.1159],[126.8787,38.1149],[126.8771,38.1131],[126.8733,38.1136],[126.8712,38.1114],[126.8684,38.1111],[126.8662,38.1103],[126.861,38.1069],[126.8602,38.1044],[126.8569,38.0999],[126.8556,38.0981],[126.8591,38.0972],[126.8622,38.0954],[126.8615,38.0921],[126.8591,38.0918],[126.8597,38.0875],[126.8602,38.0853],[126.8628,38.0839],[126.8648,38.0834],[126.8662,38.0811],[126.8689,38.0801],[126.8695,38.0776],[126.8685,38.0756],[126.867,38.0737],[126.8663,38.0695],[126.8634,38.0673],[126.861,38.0646],[126.859,38.0642],[126.858,38.0617],[126.8555,38.0615],[126.8527,38.0603],[126.8584,38.0603],[126.8584,38.054],[126.8559,38.0532],[126.8525,38.0531],[126.8529,38.0495],[126.8529,38.0453],[126.8527,38.0431],[126.8548,38.0404],[126.8526,38.0381],[126.8524,38.0351],[126.8537,38.0332],[126.855,38.0316],[126.8525,38.0323],[126.8505,38.0325],[126.847,38.0334],[126.845,38.0321],[126.8428,38.0323],[126.8407,38.0329],[126.8392,38.0314],[126.8353,38.027],[126.8332,38.025],[126.8318,38.0228],[126.829,38.0211],[126.8277,38.0195],[126.8257,38.0198],[126.8269,38.0228],[126.8255,38.0212],[126.8244,38.019],[126.8261,38.0175],[126.824,38.0163],[126.8215,38.0158],[126.8213,38.0128],[126.8186,38.013],[126.8201,38.011],[126.8223,38.0115],[126.8232,38.0087],[126.8214,38.0098],[126.8186,38.01],[126.8205,38.0088],[126.8186,38.0074],[126.8229,38.0072],[126.8198,38.0051],[126.8168,38.0026],[126.8134,38.0015],[126.8122,37.9999],[126.8077,37.9995],[126.8037,37.9991],[126.8,37.9993],[126.7959,37.9988],[126.7901,37.999],[126.7904,37.9965],[126.7872,37.9942],[126.7865,37.992],[126.7871,37.99],[126.7858,37.9881],[126.7901,37.9881],[126.7925,37.9901],[126.7937,37.9923],[126.7964,37.9937],[126.8005,37.9925],[126.8015,37.9901],[126.8002,37.9875],[126.8027,37.9823],[126.8047,37.9817],[126.8062,37.9802],[126.8065,37.978],[126.8066,37.9758],[126.8093,37.9753],[126.8093,37.9732],[126.8073,37.9727],[126.809,37.9707],[126.8116,37.9688],[126.8141,37.9688],[126.8154,37.9667],[126.8174,37.9661],[126.8185,37.9636],[126.8169,37.961],[126.8207,37.9575],[126.8239,37.9583],[126.8276,37.9603],[126.8304,37.9618],[126.8321,37.9643],[126.8358,37.9641],[126.8358,37.9602],[126.8375,37.963],[126.8382,37.9666],[126.8391,37.9755],[126.8401,37.979],[126.8414,37.9815],[126.8451,37.9846],[126.8471,37.9861],[126.8491,37.9866],[126.8528,37.986],[126.8585,37.9824],[126.86,37.981],[126.8676,37.9758],[126.8701,37.9738],[126.8725,37.9711],[126.8756,37.9694],[126.8813,37.967],[126.8862,37.9661],[126.8918,37.9674],[126.8941,37.9695],[126.8956,37.9718],[126.8954,37.9742],[126.8933,37.9775],[126.8922,37.9847],[126.8924,37.9919],[126.8956,37.9949],[126.904,37.9944],[126.9062,37.9936],[126.9097,37.9912],[126.9097,37.9883],[126.9121,37.9883],[126.9178,37.9863],[126.9211,37.9855],[126.9268,37.9834],[126.9325,37.9818],[126.9382,37.9809],[126.9439,37.9832],[126.9496,37.9865],[126.9532,37.9883],[126.9552,37.9896],[126.9577,37.9919],[126.9598,37.9955],[126.9664,38.0008],[126.9694,38.0027],[126.9707,38.0047],[126.9726,38.0073],[126.9753,38.0069],[126.9774,38.0074],[126.9805,38.008],[126.9831,38.009],[126.9861,38.0092],[126.9894,38.0106],[126.9892,38.0078],[126.9914,38.006],[126.9933,38.0037],[126.995,38.0014],[126.9976,38.0008],[126.9988,37.9988],[127.0013,37.9959],[127.0037,37.9945],[127.0074,37.994],[127.0101,37.9931],[127.0132,37.9937],[127.0161,37.992],[127.0171,37.987],[127.0155,37.9855],[127.0126,37.9846],[127.012,37.9805],[127.0121,37.9775],[127.0105,37.9754],[127.0078,37.9739],[127.0063,37.9753],[127.0038,37.9739],[127.0037,37.9711],[127.0017,37.9683],[126.9989,37.9683],[126.9952,37.9676],[126.9916,37.9679],[126.9893,37.9646],[126.9883,37.9626],[126.9883,37.9602],[126.9891,37.9575],[126.9851,37.9557],[126.9819,37.9542],[126.9773,37.9516],[126.9767,37.9478],[126.9763,37.9453],[126.9747,37.943],[126.9725,37.9421],[126.9755,37.9389],[126.9794,37.9376],[126.9841,37.9387],[126.9861,37.9385],[126.9873,37.9366],[126.9893,37.9363],[126.9928,37.9365],[126.9941,37.934],[126.9961,37.9339],[126.9983,37.9346],[127,37.9363],[127.001,37.9343],[127.003,37.9331],[127.0045,37.9315],[127.0063,37.9297],[127.0086,37.9291],[127.0107,37.9286],[127.0126,37.9296],[127.0144,37.931],[127.0154,37.9336],[127.0168,37.9366],[127.0188,37.9375],[127.0204,37.94],[127.0235,37.9398],[127.0263,37.9416],[127.0277,37.944],[127.0272,37.947],[127.0287,37.9485],[127.0281,37.9505],[127.0279,37.9528],[127.0286,37.9548],[127.031,37.9557],[127.0334,37.9572],[127.0356,37.9572],[127.0384,37.9574],[127.0405,37.9589],[127.0417,37.9612],[127.0427,37.9637],[127.0434,37.9657],[127.0454,37.97],[127.0446,37.972],[127.0465,37.9742],[127.0489,37.9755],[127.0494,37.9787],[127.0526,37.9802],[127.0551,37.9805],[127.06,37.9796],[127.0639,37.9792],[127.0638,37.9767],[127.0662,37.9752],[127.0683,37.9753],[127.0708,37.976],[127.0739,37.9764],[127.0768,37.9767],[127.0808,37.9764],[127.0824,37.975],[127.0844,37.9754],[127.0872,37.9732],[127.0892,37.9721],[127.0912,37.9716],[127.0927,37.9745],[127.0923,37.9768],[127.0904,37.9812],[127.0902,37.9836],[127.0924,37.985],[127.0969,37.9853],[127.0991,37.987],[127.1008,37.9886],[127.103,37.9893],[127.105,37.9887],[127.1072,37.9891],[127.1114,37.9889],[127.1136,37.9863],[127.1161,37.9859],[127.1181,37.9838],[127.1192,37.9812],[127.1203,37.9789],[127.1224,37.9801],[127.1244,37.9809],[127.1272,37.9828],[127.1291,37.9838],[127.1308,37.9851],[127.1316,37.9874],[127.1336,37.9886],[127.1369,37.9905],[127.1396,37.9916],[127.1417,37.9916],[127.1442,37.9922],[127.1457,37.9942],[127.1472,37.9965],[127.146,37.9984],[127.1455,38.001],[127.147,38.0034],[127.1473,38.007],[127.1468,38.0102],[127.1467,38.0145],[127.1432,38.0177],[127.14,38.0204],[127.1388,38.0222],[127.1385,38.0243],[127.1378,38.0271],[127.1362,38.0285],[127.1353,38.0315],[127.1374,38.0347],[127.1375,38.0371],[127.1338,38.039],[127.1305,38.0377],[127.1281,38.0375],[127.1251,38.0378],[127.1212,38.0389],[127.1187,38.0387],[127.1151,38.0393],[127.1176,38.0426],[127.1163,38.0453],[127.1147,38.0469],[127.1131,38.0487],[127.1119,38.0511],[127.1129,38.053],[127.114,38.0565],[127.1157,38.0603],[127.1201,38.0615],[127.1238,38.0611],[127.1266,38.0595],[127.1304,38.0617],[127.1319,38.0635],[127.1339,38.0649],[127.1375,38.0659],[127.1381,38.0691],[127.1417,38.0728],[127.1454,38.0714],[127.1475,38.0695],[127.1461,38.0628],[127.1463,38.0607],[127.1476,38.0584],[127.1503,38.0582],[127.1552,38.0621],[127.1568,38.0633],[127.1617,38.0627],[127.164,38.0617],[127.1664,38.0616],[127.1683,38.0633],[127.1708,38.0655],[127.1729,38.0663],[127.1763,38.0661],[127.1791,38.0651],[127.1835,38.0638],[127.1873,38.0644],[127.1893,38.0655],[127.19,38.0674],[127.1898,38.0706],[127.1894,38.0753],[127.1905,38.0784],[127.1917,38.0807],[127.1921,38.0829],[127.1912,38.0849],[127.1894,38.0866],[127.1874,38.0888],[127.1855,38.0905],[127.1842,38.0925],[127.1841,38.0948],[127.1839,38.0968],[127.1832,38.0995],[127.1829,38.1022],[127.1831,38.1051],[127.1829,38.1087],[127.1827,38.1141],[127.1813,38.117],[127.1782,38.1189],[127.1749,38.1201],[127.1725,38.1209],[127.1728,38.1232],[127.1743,38.1255],[127.175,38.128],[127.1751,38.1304],[127.1745,38.1349],[127.1745,38.1388],[127.1729,38.1412],[127.1739,38.1434],[127.1757,38.1466],[127.1767,38.1491],[127.177,38.1521],[127.1755,38.1547],[127.175,38.1575],[127.1743,38.1603],[127.1747,38.1635],[127.1741,38.1655],[127.1733,38.1676],[127.1725,38.1699],[127.1742,38.1722],[127.1741,38.1748],[127.1753,38.1768],[127.175,38.179],[127.1752,38.181],[127.1776,38.1832],[127.1802,38.186],[127.1771,38.1896],[127.1726,38.1954],[127.1697,38.1977],[127.1726,38.2013],[127.1742,38.2032],[127.1751,38.2055],[127.173,38.2086],[127.172,38.212],[127.1682,38.2146],[127.1645,38.216],[127.161,38.2183],[127.1618,38.2236],[127.1602,38.2254],[127.1608,38.2284],[127.1622,38.2319],[127.1615,38.2348],[127.1633,38.2385],[127.1609,38.2389],[127.1585,38.2392],[127.1539,38.2403],[127.1519,38.242],[127.1489,38.2423],[127.1473,38.2402],[127.1447,38.2391],[127.1433,38.2375],[127.1409,38.2377],[127.1389,38.2366],[127.1369,38.2363],[127.1348,38.2356],[127.1338,38.2336],[127.1312,38.2328],[127.128,38.2335],[127.1257,38.2339],[127.123,38.2328],[127.1208,38.2339],[127.1168,38.237],[127.1144,38.2364],[127.1123,38.2384],[127.1119,38.2404],[127.1099,38.2418],[127.1096,38.2442],[127.1114,38.2467],[127.1107,38.2489],[127.1103,38.2513],[127.1097,38.2546],[127.1081,38.2583],[127.108,38.2611],[127.1092,38.2632],[127.1093,38.2658],[127.1083,38.2681],[127.1105,38.2694],[127.1097,38.2717],[127.1053,38.2722],[127.102,38.2732],[127.101,38.2756],[127.103,38.2772],[127.1043,38.2799],[127.1032,38.2808]]]}},{"type":"Feature","properties":{"name":"의정부시","focus":false},"geometry":{"type":"Polygon","coordinates":[[[127.1462,37.7555],[127.1431,37.7571],[127.1428,37.7603],[127.1407,37.763],[127.1387,37.7636],[127.1361,37.763],[127.1337,37.7621],[127.1314,37.7633],[127.1258,37.7636],[127.1263,37.7657],[127.1283,37.7662],[127.1288,37.7693],[127.1258,37.7727],[127.1221,37.7737],[127.1201,37.774],[127.1183,37.7729],[127.1161,37.7727],[127.1151,37.777],[127.1106,37.7784],[127.1083,37.7791],[127.1064,37.7802],[127.1044,37.7797],[127.1018,37.7787],[127.0996,37.778],[127.0973,37.7773],[127.095,37.777],[127.0928,37.7766],[127.0908,37.776],[127.089,37.7748],[127.0865,37.7734],[127.0844,37.7735],[127.0824,37.7721],[127.081,37.7705],[127.0788,37.7697],[127.0762,37.7688],[127.0733,37.7684],[127.0705,37.7665],[127.0688,37.7654],[127.0668,37.7649],[127.0649,37.7637],[127.0628,37.763],[127.0607,37.7623],[127.0564,37.7617],[127.0543,37.7622],[127.0516,37.7612],[127.0491,37.7622],[127.0469,37.7629],[127.0455,37.7645],[127.0435,37.7651],[127.0413,37.7668],[127.0393,37.7667],[127.0373,37.767],[127.0342,37.7682],[127.032,37.768],[127.0301,37.7673],[127.0278,37.7666],[127.0253,37.7672],[127.0197,37.7681],[127.0174,37.7689],[127.0157,37.7677],[127.0139,37.7663],[127.0125,37.7648],[127.0106,37.7638],[127.0085,37.7624],[127.0058,37.7628],[127.0037,37.7632],[127.0018,37.7615],[127.0022,37.7593],[127.0024,37.7552],[127.0054,37.752],[127.006,37.7498],[127.0067,37.7477],[127.0039,37.746],[127.0023,37.7442],[127.0044,37.7433],[127.0025,37.7413],[127.0039,37.7379],[127.0062,37.7365],[127.0057,37.7337],[127.0077,37.7331],[127.0088,37.7311],[127.0091,37.7289],[127.0115,37.7272],[127.0121,37.7236],[127.0105,37.7219],[127.0127,37.7188],[127.0131,37.7166],[127.0121,37.7137],[127.0154,37.7098],[127.0174,37.708],[127.0181,37.7057],[127.0172,37.7036],[127.0154,37.7015],[127.0178,37.7012],[127.0198,37.701],[127.0222,37.6997],[127.0254,37.6996],[127.0277,37.7009],[127.0293,37.6993],[127.0298,37.6963],[127.0311,37.6931],[127.0368,37.6926],[127.039,37.694],[127.0411,37.6953],[127.0431,37.6952],[127.0456,37.6924],[127.0486,37.6941],[127.0494,37.6917],[127.0498,37.688],[127.0509,37.6862],[127.0552,37.6892],[127.0584,37.6897],[127.0612,37.6921],[127.0628,37.6947],[127.0663,37.6944],[127.0686,37.694],[127.0711,37.6937],[127.0749,37.6951],[127.0782,37.696],[127.0811,37.6961],[127.0802,37.6995],[127.084,37.7019],[127.0872,37.702],[127.0896,37.7026],[127.0922,37.7029],[127.094,37.7038],[127.0965,37.7022],[127.0998,37.7049],[127.1029,37.706],[127.1072,37.7076],[127.109,37.7087],[127.1093,37.7122],[127.11,37.7142],[127.1122,37.7178],[127.116,37.717],[127.1171,37.7195],[127.1203,37.7217],[127.1231,37.7219],[127.1236,37.7247],[127.1258,37.7275],[127.1259,37.7304],[127.1254,37.733],[127.1239,37.735],[127.1242,37.7374],[127.1245,37.7403],[127.125,37.7426],[127.1265,37.7442],[127.129,37.7455],[127.1286,37.7481],[127.1329,37.7489],[127.1363,37.7495],[127.1384,37.7474],[127.1417,37.7478],[127.1465,37.7499],[127.1472,37.752],[127.1466,37.754],[127.1462,37.7555]]]}},{"type":"Feature","properties":{"name":"남양주시","focus":false},"geometry":{"type":"Polygon","coordinates":[[[127.3683,37.6904],[127.3722,37.6916],[127.3693,37.6931],[127.3636,37.6935],[127.3587,37.6946],[127.3591,37.6983],[127.3562,37.7017],[127.3534,37.7044],[127.3551,37.7073],[127.3538,37.7109],[127.3538,37.7136],[127.3548,37.7171],[127.3548,37.7224],[127.3528,37.7246],[127.35,37.7265],[127.3479,37.7269],[127.3447,37.7279],[127.3429,37.7292],[127.3437,37.7327],[127.3425,37.7376],[127.3398,37.7394],[127.3391,37.7417],[127.336,37.7428],[127.3348,37.7457],[127.3334,37.7475],[127.3325,37.7501],[127.334,37.7527],[127.3307,37.7555],[127.3289,37.7578],[127.3282,37.7597],[127.3254,37.7613],[127.3237,37.7627],[127.322,37.7645],[127.3205,37.7661],[127.3172,37.7678],[127.3114,37.7682],[127.3085,37.7698],[127.3052,37.7715],[127.3043,37.7735],[127.2999,37.7739],[127.2974,37.7745],[127.2943,37.7752],[127.2913,37.7755],[127.289,37.7748],[127.2854,37.7747],[127.2825,37.7747],[127.2799,37.7745],[127.2778,37.7745],[127.2752,37.7745],[127.2723,37.7759],[127.2697,37.7779],[127.2672,37.7795],[127.2644,37.7782],[127.2623,37.7767],[127.2612,37.7745],[127.2605,37.7723],[127.2602,37.7698],[127.2535,37.7675],[127.2514,37.7662],[127.2493,37.7658],[127.2472,37.7652],[127.2449,37.7641],[127.2429,37.7636],[127.2409,37.7628],[127.2389,37.7631],[127.2368,37.7628],[127.2352,37.7604],[127.2336,37.7585],[127.2316,37.7575],[127.2293,37.7559],[127.2266,37.7544],[127.2232,37.7544],[127.2236,37.7565],[127.2201,37.7584],[127.2178,37.7583],[127.2147,37.7609],[127.213,37.7628],[127.213,37.7658],[127.2116,37.7694],[127.2089,37.7682],[127.2082,37.7654],[127.2058,37.7634],[127.2036,37.7647],[127.2005,37.7643],[127.1987,37.7632],[127.1967,37.7617],[127.1946,37.7626],[127.1926,37.7643],[127.1907,37.7625],[127.1874,37.7628],[127.1853,37.7645],[127.1828,37.7644],[127.179,37.7627],[127.1767,37.7594],[127.1743,37.7577],[127.1728,37.7557],[127.1733,37.7534],[127.1712,37.7511],[127.1709,37.7489],[127.1679,37.7491],[127.1659,37.7473],[127.1638,37.7469],[127.158,37.7492],[127.1553,37.7511],[127.1529,37.7535],[127.1483,37.7561],[127.1462,37.7555],[127.1472,37.752],[127.1465,37.7499],[127.1417,37.7478],[127.1396,37.7478],[127.1363,37.7495],[127.1329,37.7489],[127.1286,37.7481],[127.129,37.7455],[127.1265,37.7442],[127.125,37.7426],[127.1245,37.7403],[127.1242,37.7374],[127.1239,37.735],[127.1254,37.733],[127.1259,37.7304],[127.1258,37.7275],[127.1235,37.7259],[127.1228,37.7236],[127.1208,37.7224],[127.118,37.7209],[127.116,37.717],[127.114,37.7178],[127.1106,37.7159],[127.109,37.7133],[127.109,37.7087],[127.1072,37.7076],[127.1039,37.7072],[127.1011,37.7049],[127.0965,37.7022],[127.094,37.7038],[127.0922,37.7029],[127.0896,37.7026],[127.0872,37.702],[127.084,37.7019],[127.081,37.7],[127.0811,37.6961],[127.0838,37.6943],[127.0839,37.6918],[127.0865,37.6899],[127.0906,37.6896],[127.093,37.69],[127.096,37.6891],[127.0964,37.6855],[127.0943,37.6833],[127.093,37.6814],[127.092,37.6786],[127.0939,37.6767],[127.0947,37.6736],[127.0957,37.6706],[127.095,37.6676],[127.0947,37.6649],[127.0912,37.6593],[127.0931,37.6538],[127.0933,37.6506],[127.0936,37.6466],[127.0946,37.6446],[127.0976,37.644],[127.1028,37.6452],[127.1068,37.6452],[127.1093,37.6427],[127.1118,37.6435],[127.1156,37.6438],[127.1254,37.6419],[127.1293,37.6418],[127.133,37.6429],[127.1354,37.644],[127.1375,37.6445],[127.1392,37.6459],[127.1414,37.6461],[127.1445,37.6444],[127.1465,37.6434],[127.1487,37.6408],[127.1493,37.6351],[127.1467,37.6311],[127.1429,37.6243],[127.143,37.622],[127.146,37.6181],[127.1465,37.6157],[127.1459,37.6125],[127.148,37.6098],[127.1478,37.6074],[127.1493,37.6026],[127.1506,37.5999],[127.1537,37.5974],[127.1561,37.5963],[127.1605,37.5956],[127.1633,37.5959],[127.1667,37.5948],[127.1689,37.5925],[127.1661,37.5899],[127.1626,37.5897],[127.1605,37.5868],[127.1624,37.5846],[127.1656,37.5842],[127.1703,37.5812],[127.173,37.5829],[127.1775,37.5865],[127.1795,37.5878],[127.1813,37.5901],[127.1831,37.5919],[127.1852,37.5919],[127.1965,37.5912],[127.2,37.5901],[127.2024,37.5889],[127.205,37.5865],[127.2078,37.5829],[127.2135,37.5767],[127.2154,37.5757],[127.2192,37.5742],[127.2198,37.5685],[127.222,37.5649],[127.2287,37.5633],[127.2305,37.5613],[127.2323,37.5599],[127.2351,37.5544],[127.2361,37.5505],[127.2376,37.5468],[127.2393,37.5454],[127.2418,37.5432],[127.2475,37.5414],[127.2588,37.536],[127.2644,37.5324],[127.2701,37.5302],[127.2741,37.5288],[127.2814,37.5252],[127.2844,37.5216],[127.2854,37.518],[127.2856,37.5144],[127.2871,37.5072],[127.2891,37.506],[127.2913,37.5055],[127.2948,37.5057],[127.3005,37.5077],[127.3054,37.5122],[127.3068,37.5147],[127.3068,37.5195],[127.3063,37.5272],[127.3067,37.5298],[127.3078,37.5334],[127.3104,37.5404],[127.3149,37.5476],[127.3177,37.5507],[127.3222,37.5567],[127.3241,37.5587],[127.3266,37.5629],[127.3284,37.5657],[127.3295,37.5681],[127.3315,37.5711],[127.3334,37.575],[127.3365,37.5809],[127.3372,37.584],[127.3404,37.5897],[127.3418,37.5931],[127.3425,37.5957],[127.3427,37.5984],[127.3436,37.6029],[127.3441,37.6061],[127.3448,37.6092],[127.3454,37.6131],[127.3469,37.6163],[127.3474,37.6184],[127.3507,37.6253],[127.3533,37.6289],[127.3582,37.6343],[127.3632,37.6368],[127.3673,37.6405],[127.3698,37.6445],[127.3715,37.6477],[127.3741,37.6526],[127.3756,37.6552],[127.3774,37.6654],[127.3796,37.6741],[127.381,37.6773],[127.3775,37.675],[127.375,37.6778],[127.3746,37.6814],[127.3687,37.6858],[127.367,37.688],[127.3683,37.6904],[127.3683,37.6904]]]}},{"type":"Feature","properties":{"name":"가평군","focus":false},"geometry":{"type":"Polygon","coordinates":[[[127.5399,38.0006],[127.5369,38.0007],[127.5311,38.0024],[127.5261,38.0014],[127.5234,38.0016],[127.5206,38.001],[127.5169,38.0006],[127.5124,38.0002],[127.5089,38.0013],[127.507,38],[127.5039,37.998],[127.5005,38.0005],[127.4981,38.0013],[127.4974,38.0037],[127.4931,38.0043],[127.4897,38.005],[127.4876,38.0051],[127.4853,38.0049],[127.483,38.0054],[127.4797,38.0064],[127.4716,38.0065],[127.4697,38.0088],[127.4653,38.0108],[127.463,38.0117],[127.4606,38.0143],[127.4575,38.017],[127.4566,38.0209],[127.4558,38.0244],[127.4564,38.0267],[127.4554,38.0292],[127.4534,38.0308],[127.4519,38.0346],[127.451,38.0381],[127.4518,38.0416],[127.4527,38.044],[127.4529,38.0472],[127.4504,38.0486],[127.4484,38.0505],[127.4462,38.0512],[127.4448,38.0486],[127.4431,38.0473],[127.4408,38.0437],[127.4386,38.0413],[127.4361,38.0395],[127.4314,38.0354],[127.429,38.0347],[127.4269,38.0337],[127.4247,38.0335],[127.4241,38.031],[127.4261,38.0297],[127.4271,38.0275],[127.4262,38.025],[127.4256,38.0229],[127.4235,38.0203],[127.4215,38.0192],[127.4198,38.0174],[127.4184,38.0147],[127.4184,38.0123],[127.417,38.0108],[127.4162,38.0082],[127.4145,38.0056],[127.415,38.0025],[127.4132,37.9994],[127.4122,37.9976],[127.4101,37.9969],[127.4086,37.9954],[127.4066,37.992],[127.4052,37.9903],[127.4027,37.9906],[127.4,37.9895],[127.3976,37.9887],[127.3957,37.9879],[127.3939,37.986],[127.3917,37.9854],[127.39,37.9834],[127.3876,37.9839],[127.3857,37.9831],[127.3842,37.9804],[127.3844,37.977],[127.3833,37.9741],[127.3823,37.9699],[127.3797,37.9666],[127.3772,37.9641],[127.3767,37.9616],[127.3775,37.9596],[127.3793,37.9572],[127.3781,37.9556],[127.3766,37.9532],[127.3787,37.951],[127.3808,37.9505],[127.3831,37.9493],[127.3852,37.9469],[127.3846,37.9433],[127.3813,37.9403],[127.3794,37.9387],[127.3772,37.9381],[127.3754,37.937],[127.3733,37.9351],[127.372,37.933],[127.3696,37.9302],[127.3671,37.929],[127.3659,37.9274],[127.3625,37.9255],[127.3598,37.9238],[127.3565,37.9217],[127.3538,37.9219],[127.3516,37.9211],[127.3496,37.9216],[127.3482,37.9231],[127.3463,37.9252],[127.344,37.9261],[127.3405,37.9244],[127.3387,37.9233],[127.3349,37.9247],[127.3329,37.9257],[127.3303,37.9255],[127.3301,37.9235],[127.3287,37.9219],[127.3299,37.9163],[127.328,37.9134],[127.3266,37.9116],[127.3285,37.9099],[127.3295,37.9068],[127.3273,37.9045],[127.3264,37.9024],[127.3271,37.8994],[127.3265,37.8969],[127.3285,37.894],[127.3262,37.8909],[127.3232,37.8893],[127.3224,37.8873],[127.3223,37.8848],[127.3228,37.8816],[127.3229,37.8787],[127.325,37.878],[127.3238,37.8756],[127.3238,37.8727],[127.3217,37.8715],[127.3192,37.8714],[127.3173,37.8689],[127.3154,37.8677],[127.3134,37.8679],[127.3127,37.8658],[127.3092,37.8679],[127.3061,37.8686],[127.3036,37.8687],[127.3015,37.8682],[127.2984,37.8683],[127.2958,37.8689],[127.2942,37.8703],[127.2925,37.8744],[127.2867,37.8675],[127.2856,37.865],[127.2853,37.8617],[127.2843,37.8598],[127.2822,37.8585],[127.2804,37.8557],[127.2824,37.8522],[127.2839,37.8498],[127.2866,37.848],[127.2838,37.8457],[127.2816,37.8447],[127.2806,37.8426],[127.2787,37.8395],[127.2769,37.8368],[127.2758,37.8322],[127.2741,37.8304],[127.2741,37.827],[127.2769,37.8245],[127.2768,37.8214],[127.278,37.8191],[127.2793,37.8163],[127.2788,37.814],[127.2775,37.8105],[127.2768,37.8073],[127.2785,37.8047],[127.2766,37.8029],[127.2744,37.7981],[127.2719,37.7961],[127.2707,37.7937],[127.2715,37.7914],[127.273,37.79],[127.2712,37.7873],[127.2695,37.7857],[127.2678,37.7823],[127.266,37.7807],[127.2685,37.7793],[127.2723,37.7759],[127.2735,37.7738],[127.2772,37.775],[127.2799,37.7745],[127.2825,37.7747],[127.2845,37.7749],[127.2873,37.7749],[127.291,37.7751],[127.2935,37.7759],[127.2974,37.7745],[127.2997,37.7744],[127.3026,37.7735],[127.3052,37.7715],[127.3077,37.7699],[127.3111,37.7678],[127.3158,37.769],[127.319,37.7672],[127.3207,37.7651],[127.3227,37.7632],[127.3241,37.7617],[127.3264,37.7603],[127.3289,37.7578],[127.3307,37.7555],[127.3325,37.7536],[127.3327,37.7509],[127.3334,37.7475],[127.3348,37.7457],[127.336,37.7428],[127.3391,37.7417],[127.3398,37.7394],[127.3425,37.7376],[127.3431,37.734],[127.3429,37.7292],[127.3447,37.7279],[127.3479,37.7269],[127.35,37.7265],[127.3528,37.7246],[127.3555,37.7234],[127.3541,37.7185],[127.3544,37.7148],[127.3538,37.7109],[127.3552,37.709],[127.3534,37.7044],[127.3551,37.7031],[127.3587,37.6992],[127.3584,37.6964],[127.3636,37.6935],[127.3693,37.6931],[127.3715,37.6928],[127.37,37.6904],[127.3667,37.6896],[127.3687,37.6858],[127.3737,37.6826],[127.3746,37.6788],[127.3766,37.6753],[127.3793,37.6773],[127.3796,37.6741],[127.3774,37.6654],[127.3756,37.6552],[127.3741,37.6526],[127.3715,37.6477],[127.3744,37.6489],[127.3774,37.6503],[127.3799,37.6517],[127.382,37.6509],[127.3852,37.6506],[127.3881,37.6516],[127.3912,37.6505],[127.3943,37.6511],[127.3981,37.6513],[127.3998,37.6529],[127.4012,37.6556],[127.4032,37.6564],[127.4058,37.6577],[127.4073,37.6596],[127.4115,37.6603],[127.4137,37.6612],[127.4159,37.6633],[127.4205,37.6633],[127.423,37.6648],[127.4251,37.6656],[127.4277,37.67],[127.4299,37.6696],[127.4325,37.6678],[127.4359,37.6643],[127.4398,37.662],[127.4415,37.6597],[127.4385,37.6577],[127.4357,37.6545],[127.4376,37.6517],[127.4371,37.6497],[127.4411,37.6466],[127.4405,37.6441],[127.4441,37.6438],[127.4461,37.6425],[127.4488,37.6412],[127.4542,37.6415],[127.4559,37.6397],[127.4543,37.6381],[127.4563,37.636],[127.456,37.6337],[127.4588,37.6289],[127.4613,37.6274],[127.4624,37.6251],[127.4678,37.6247],[127.4704,37.6228],[127.4715,37.6205],[127.4723,37.6169],[127.4718,37.6131],[127.4721,37.6107],[127.4731,37.608],[127.4728,37.6047],[127.472,37.602],[127.4723,37.5986],[127.472,37.5964],[127.4697,37.5925],[127.4705,37.5887],[127.47,37.584],[127.4704,37.58],[127.4727,37.5781],[127.4755,37.577],[127.4781,37.5767],[127.4812,37.5754],[127.4834,37.5748],[127.4856,37.5752],[127.4883,37.5748],[127.495,37.572],[127.4971,37.5711],[127.5007,37.5733],[127.5035,37.5746],[127.5065,37.5753],[127.5111,37.5766],[127.5146,37.579],[127.5169,37.581],[127.5193,37.5838],[127.5218,37.5864],[127.5245,37.5867],[127.5276,37.5865],[127.5294,37.5856],[127.5314,37.5863],[127.5334,37.586],[127.536,37.5858],[127.5379,37.5845],[127.5429,37.5848],[127.5469,37.5857],[127.5491,37.5859],[127.5534,37.5867],[127.5549,37.5846],[127.5589,37.5838],[127.5612,37.5863],[127.5608,37.5897],[127.5598,37.592],[127.5594,37.5946],[127.5615,37.597],[127.5621,37.5991],[127.5626,37.6041],[127.5654,37.6059],[127.5669,37.6081],[127.5692,37.6081],[127.57,37.6106],[127.5704,37.6136],[127.5674,37.6156],[127.5663,37.6185],[127.5641,37.6199],[127.5622,37.6209],[127.5597,37.6229],[127.56,37.6258],[127.5594,37.6285],[127.5565,37.6299],[127.5543,37.6314],[127.5483,37.6331],[127.5464,37.6373],[127.5437,37.6378],[127.5426,37.6395],[127.5396,37.6404],[127.5379,37.6415],[127.5366,37.6439],[127.5353,37.6471],[127.5357,37.6506],[127.5384,37.6505],[127.5439,37.6516],[127.5449,37.6549],[127.5463,37.6578],[127.5494,37.659],[127.5511,37.6601],[127.5528,37.6615],[127.5518,37.6637],[127.5496,37.6668],[127.5492,37.6708],[127.5496,37.6746],[127.5508,37.6773],[127.5506,37.6805],[127.5505,37.6839],[127.5506,37.687],[127.5515,37.6901],[127.5532,37.6945],[127.5543,37.6967],[127.5553,37.7001],[127.5566,37.702],[127.5558,37.7044],[127.5586,37.706],[127.5589,37.7122],[127.5599,37.7167],[127.5611,37.7184],[127.5613,37.7222],[127.56,37.7245],[127.5601,37.7281],[127.562,37.7271],[127.5586,37.7289],[127.5562,37.7292],[127.5534,37.7288],[127.551,37.7276],[127.5491,37.7239],[127.5425,37.7199],[127.5401,37.7194],[127.5339,37.7219],[127.5316,37.724],[127.5295,37.7263],[127.527,37.7268],[127.5246,37.7264],[127.5134,37.7175],[127.5118,37.7155],[127.5095,37.7167],[127.5071,37.7205],[127.5062,37.7241],[127.5069,37.7307],[127.5095,37.734],[127.5113,37.7365],[127.514,37.7386],[127.5254,37.7439],[127.5284,37.7454],[127.5342,37.7487],[127.5381,37.7515],[127.542,37.7549],[127.5434,37.7567],[127.5448,37.7601],[127.545,37.7636],[127.5432,37.7674],[127.541,37.7708],[127.5377,37.7744],[127.5336,37.7781],[127.5317,37.7804],[127.5286,37.7834],[127.5257,37.7853],[127.5223,37.7891],[127.5209,37.7926],[127.5232,37.7964],[127.5264,37.7996],[127.5296,37.8031],[127.533,37.8068],[127.5373,37.8104],[127.5367,37.8138],[127.5349,37.8176],[127.5321,37.8202],[127.5279,37.8216],[127.5257,37.8228],[127.5244,37.825],[127.5247,37.8297],[127.5256,37.833],[127.5273,37.8365],[127.5294,37.8397],[127.5325,37.8422],[127.5372,37.8452],[127.5407,37.8465],[127.5459,37.8468],[127.5496,37.8465],[127.5499,37.8487],[127.5505,37.8507],[127.5521,37.8532],[127.555,37.8544],[127.5574,37.8561],[127.5608,37.8563],[127.5632,37.8558],[127.5639,37.858],[127.5669,37.8592],[127.5659,37.8612],[127.5675,37.8647],[127.5686,37.8668],[127.5718,37.8688],[127.5735,37.8702],[127.5745,37.8723],[127.5778,37.8739],[127.5805,37.8742],[127.583,37.8752],[127.5865,37.8758],[127.5904,37.8757],[127.5942,37.876],[127.5975,37.8754],[127.6005,37.8744],[127.6032,37.8742],[127.6058,37.8765],[127.6062,37.8785],[127.608,37.8819],[127.6086,37.8853],[127.6081,37.8879],[127.6076,37.8899],[127.609,37.8933],[127.6111,37.8972],[127.6134,37.8988],[127.6145,37.9013],[127.6158,37.9047],[127.6174,37.9086],[127.6174,37.9108],[127.6163,37.9145],[127.6149,37.9167],[127.6147,37.9193],[127.6125,37.9203],[127.612,37.9241],[127.6136,37.9263],[127.6155,37.9273],[127.6168,37.9291],[127.6157,37.9319],[127.6152,37.9347],[127.6134,37.9382],[127.6127,37.9405],[127.6102,37.9416],[127.6062,37.944],[127.6025,37.9479],[127.6033,37.9507],[127.6029,37.9551],[127.6004,37.9562],[127.5959,37.9565],[127.5924,37.9572],[127.5894,37.9594],[127.5864,37.9607],[127.5842,37.9617],[127.5817,37.9616],[127.5796,37.9615],[127.5776,37.9622],[127.5755,37.9637],[127.5725,37.9642],[127.5682,37.9635],[127.5646,37.9634],[127.561,37.9627],[127.5584,37.9631],[127.5562,37.9641],[127.5545,37.9654],[127.5515,37.9663],[127.5489,37.966],[127.5463,37.9671],[127.5442,37.9685],[127.5448,37.9757],[127.5478,37.9784],[127.5466,37.9807],[127.5458,37.9835],[127.5438,37.9874],[127.5431,37.9906],[127.5423,37.9936],[127.5413,37.9979],[127.5399,38.0006],[127.5399,38.0006]]]}},{"type":"Feature","properties":{"name":"동두천시","focus":true},"geometry":{"type":"Polygon","coordinates":[[[127.0562,37.98],[127.0533,37.9807],[127.0511,37.9793],[127.0494,37.9765],[127.0478,37.9752],[127.0449,37.9729],[127.0451,37.9703],[127.0446,37.9671],[127.0428,37.9639],[127.0417,37.9612],[127.0405,37.9589],[127.0384,37.9574],[127.0361,37.9569],[127.0334,37.9572],[127.031,37.9557],[127.0289,37.9559],[127.0278,37.9538],[127.0284,37.9511],[127.0287,37.9485],[127.0272,37.947],[127.0277,37.944],[127.0263,37.9416],[127.0235,37.9398],[127.0215,37.9402],[127.0193,37.9378],[127.0168,37.9366],[127.0159,37.9344],[127.0151,37.9322],[127.014,37.9303],[127.0118,37.9289],[127.0097,37.9282],[127.0091,37.9257],[127.0112,37.9221],[127.0136,37.9209],[127.0122,37.9186],[127.0087,37.9173],[127.0062,37.9152],[127.008,37.912],[127.0099,37.9102],[127.0107,37.9068],[127.0122,37.9046],[127.0148,37.9031],[127.0167,37.902],[127.0208,37.9002],[127.0219,37.8985],[127.0245,37.8979],[127.0288,37.8989],[127.0321,37.8977],[127.0341,37.8974],[127.0372,37.8954],[127.0403,37.8956],[127.0429,37.8951],[127.0459,37.8946],[127.0466,37.891],[127.048,37.8885],[127.0476,37.885],[127.0509,37.8802],[127.0531,37.8775],[127.0539,37.8756],[127.0582,37.8734],[127.0604,37.8694],[127.0638,37.8693],[127.0662,37.8715],[127.0689,37.8708],[127.0714,37.8717],[127.0737,37.8728],[127.0782,37.8702],[127.0806,37.8701],[127.0823,37.8714],[127.0843,37.8716],[127.0876,37.8723],[127.0906,37.8711],[127.093,37.8711],[127.0953,37.8678],[127.0984,37.8664],[127.101,37.8669],[127.1032,37.8657],[127.1078,37.862],[127.1096,37.8608],[127.1111,37.8626],[127.1116,37.8648],[127.114,37.8655],[127.1167,37.8661],[127.1197,37.8659],[127.1232,37.867],[127.1236,37.87],[127.1262,37.872],[127.1283,37.874],[127.1313,37.8734],[127.1344,37.874],[127.1372,37.8755],[127.1408,37.8759],[127.1436,37.8759],[127.1456,37.8754],[127.1479,37.8785],[127.1481,37.8812],[127.1493,37.883],[127.1516,37.889],[127.1535,37.8904],[127.1544,37.8938],[127.1554,37.8956],[127.1506,37.8973],[127.1501,37.9004],[127.1478,37.9026],[127.147,37.9049],[127.148,37.9068],[127.1462,37.9093],[127.1455,37.912],[127.1418,37.9129],[127.1384,37.914],[127.1351,37.9132],[127.1332,37.916],[127.1286,37.9168],[127.1264,37.9159],[127.1238,37.9162],[127.1215,37.9165],[127.1206,37.9192],[127.1204,37.9214],[127.1188,37.9227],[127.118,37.9249],[127.1162,37.9292],[127.1122,37.9318],[127.1116,37.9346],[127.1093,37.937],[127.1086,37.9396],[127.1059,37.9405],[127.103,37.9415],[127.0996,37.9418],[127.0974,37.9434],[127.0954,37.9443],[127.0967,37.9467],[127.0958,37.949],[127.0979,37.9505],[127.0993,37.9529],[127.0983,37.9548],[127.0958,37.9559],[127.0939,37.9578],[127.0924,37.9598],[127.0937,37.9626],[127.0934,37.9649],[127.0942,37.9668],[127.0932,37.9696],[127.0912,37.9716],[127.0892,37.9721],[127.0872,37.9732],[127.0854,37.9747],[127.0824,37.975],[127.0808,37.9764],[127.0787,37.9765],[127.0758,37.9763],[127.0727,37.9762],[127.0683,37.9753],[127.0662,37.9752],[127.0637,37.976],[127.0641,37.9789],[127.0617,37.9793],[127.0562,37.98],[127.0562,37.98]]]}},{"type":"Feature","properties":{"name":"양주시","focus":true},"geometry":{"type":"Polygon","coordinates":[[[126.9794,37.9376],[126.9755,37.9389],[126.9725,37.9421],[126.9702,37.9413],[126.969,37.9387],[126.9667,37.9392],[126.9647,37.9384],[126.9644,37.9347],[126.9638,37.9321],[126.9645,37.9295],[126.9641,37.9275],[126.9622,37.9249],[126.9617,37.9228],[126.9605,37.9202],[126.9566,37.9218],[126.9548,37.9209],[126.9515,37.9192],[126.9495,37.9184],[126.951,37.9158],[126.9536,37.9136],[126.9547,37.9116],[126.9537,37.9091],[126.952,37.9078],[126.9496,37.9062],[126.9489,37.9037],[126.947,37.9018],[126.9463,37.899],[126.9476,37.8974],[126.9479,37.8953],[126.947,37.8934],[126.9458,37.8909],[126.9455,37.8889],[126.9464,37.8868],[126.9474,37.8844],[126.9467,37.8822],[126.9465,37.8797],[126.9455,37.8755],[126.9448,37.873],[126.9444,37.8707],[126.9456,37.8689],[126.946,37.8664],[126.9426,37.8624],[126.9417,37.8603],[126.94,37.8577],[126.939,37.8553],[126.9392,37.8531],[126.9371,37.8506],[126.9354,37.8483],[126.9337,37.8461],[126.9348,37.8429],[126.9366,37.8414],[126.9341,37.8389],[126.932,37.8382],[126.9269,37.8382],[126.9251,37.8416],[126.9229,37.8417],[126.918,37.8418],[126.914,37.8411],[126.9121,37.84],[126.9124,37.8374],[126.9127,37.8347],[126.9121,37.8314],[126.911,37.8285],[126.9089,37.8288],[126.9066,37.8282],[126.9038,37.8269],[126.902,37.8251],[126.9032,37.8233],[126.9049,37.8197],[126.908,37.8176],[126.91,37.8167],[126.9095,37.8146],[126.9088,37.8126],[126.9091,37.8104],[126.9109,37.8088],[126.9116,37.8063],[126.9111,37.8042],[126.9091,37.8043],[126.9073,37.8033],[126.9064,37.7994],[126.9054,37.7969],[126.9049,37.7941],[126.9037,37.7912],[126.9063,37.7906],[126.9086,37.7913],[126.9113,37.7913],[126.915,37.7909],[126.9177,37.7898],[126.9202,37.7895],[126.9217,37.7878],[126.9241,37.7865],[126.9264,37.7852],[126.9317,37.7889],[126.9353,37.788],[126.9379,37.787],[126.9368,37.7841],[126.9348,37.7822],[126.9344,37.7796],[126.9345,37.7776],[126.9353,37.7751],[126.9346,37.7728],[126.9324,37.7704],[126.9334,37.7677],[126.9311,37.7649],[126.9299,37.7615],[126.9288,37.7588],[126.929,37.756],[126.9311,37.7552],[126.9316,37.7529],[126.9308,37.7503],[126.9291,37.7485],[126.9331,37.7459],[126.9304,37.7441],[126.9305,37.74],[126.9311,37.7376],[126.9286,37.7362],[126.9255,37.7331],[126.9233,37.7329],[126.9216,37.7303],[126.9234,37.7287],[126.9234,37.7262],[126.9238,37.7231],[126.9249,37.7198],[126.9238,37.7175],[126.9222,37.7152],[126.921,37.7134],[126.9246,37.7118],[126.9253,37.7087],[126.9234,37.7064],[126.9225,37.7044],[126.9221,37.7015],[126.921,37.6985],[126.9191,37.696],[126.9187,37.6928],[126.9169,37.6905],[126.9153,37.6882],[126.9142,37.685],[126.9146,37.6815],[126.9139,37.6794],[126.913,37.6764],[126.9115,37.6748],[126.9088,37.6738],[126.9065,37.673],[126.9084,37.6718],[126.9112,37.6687],[126.9133,37.6692],[126.916,37.6702],[126.9201,37.6696],[126.9204,37.6716],[126.9231,37.6716],[126.9262,37.6708],[126.9292,37.672],[126.9321,37.6715],[126.9349,37.6711],[126.937,37.6711],[126.9388,37.6702],[126.9409,37.671],[126.9429,37.672],[126.9446,37.6768],[126.9431,37.6789],[126.9435,37.6809],[126.9454,37.6826],[126.9452,37.6858],[126.9471,37.6868],[126.9514,37.688],[126.9523,37.6903],[126.9537,37.6926],[126.9579,37.6916],[126.9619,37.6923],[126.9651,37.6928],[126.9664,37.691],[126.9686,37.6898],[126.9708,37.6892],[126.9749,37.6866],[126.9791,37.6863],[126.9824,37.6852],[126.987,37.6821],[126.9899,37.6811],[126.9922,37.6796],[126.9941,37.6803],[126.9967,37.6824],[126.9994,37.6839],[127.0017,37.6843],[127.0045,37.6851],[127.0065,37.6849],[127.0085,37.6845],[127.0086,37.6874],[127.0083,37.6901],[127.0097,37.6934],[127.0097,37.6957],[127.0121,37.6974],[127.0139,37.6988],[127.015,37.7005],[127.0173,37.7036],[127.0181,37.7057],[127.0174,37.708],[127.0154,37.7098],[127.0128,37.7125],[127.0117,37.7156],[127.0134,37.717],[127.0105,37.7219],[127.0121,37.7236],[127.0122,37.7261],[127.0091,37.7289],[127.0088,37.7311],[127.0077,37.7331],[127.0057,37.7337],[127.0048,37.7361],[127.0034,37.7387],[127.0024,37.7408],[127.0033,37.7426],[127.0026,37.7448],[127.0058,37.747],[127.0061,37.7495],[127.0054,37.752],[127.003,37.754],[127.002,37.7581],[127.0017,37.7614],[127.0032,37.7629],[127.0058,37.7628],[127.0085,37.7624],[127.0112,37.764],[127.0129,37.7651],[127.0145,37.7669],[127.0159,37.7686],[127.0184,37.7686],[127.0239,37.767],[127.0261,37.7668],[127.0282,37.767],[127.0307,37.7672],[127.0329,37.7679],[127.0369,37.7671],[127.0393,37.7667],[127.0413,37.7668],[127.0434,37.7657],[127.0452,37.7646],[127.0468,37.7629],[127.0491,37.7623],[127.0512,37.7611],[127.0543,37.7622],[127.0564,37.7617],[127.0603,37.7621],[127.0621,37.7631],[127.0641,37.7636],[127.0667,37.7641],[127.0688,37.7654],[127.0704,37.7666],[127.0733,37.7684],[127.0762,37.7688],[127.0782,37.7698],[127.0805,37.7703],[127.0821,37.7716],[127.0839,37.773],[127.086,37.7735],[127.0883,37.7743],[127.0901,37.7753],[127.0928,37.7766],[127.0948,37.7771],[127.0973,37.7773],[127.0996,37.778],[127.1018,37.7787],[127.1038,37.7795],[127.1057,37.7803],[127.1059,37.7833],[127.1092,37.7854],[127.1103,37.7876],[127.1132,37.7888],[127.1134,37.7913],[127.1177,37.796],[127.1181,37.7997],[127.1175,37.8018],[127.117,37.8044],[127.1182,37.8072],[127.1196,37.8095],[127.1211,37.8114],[127.1218,37.814],[127.1203,37.8168],[127.1203,37.8193],[127.1209,37.824],[127.1216,37.8276],[127.1205,37.8307],[127.1183,37.8322],[127.1172,37.8346],[127.118,37.8366],[127.1158,37.8387],[127.1164,37.8428],[127.1144,37.8497],[127.1124,37.8525],[127.1107,37.8536],[127.1099,37.8557],[127.1093,37.8578],[127.1089,37.8604],[127.1045,37.8644],[127.101,37.8669],[127.0984,37.8664],[127.0953,37.8678],[127.0936,37.87],[127.0906,37.8711],[127.0876,37.8723],[127.0843,37.8716],[127.0823,37.8714],[127.0806,37.8701],[127.0782,37.8702],[127.0748,37.8724],[127.0723,37.8716],[127.0689,37.8708],[127.0662,37.8715],[127.0638,37.8693],[127.0618,37.8689],[127.0582,37.8734],[127.0549,37.8749],[127.0531,37.8775],[127.0509,37.8802],[127.0482,37.8832],[127.0481,37.8874],[127.0466,37.891],[127.0459,37.8946],[127.0429,37.8951],[127.0408,37.8952],[127.0372,37.8954],[127.0341,37.8974],[127.0321,37.8977],[127.0288,37.8989],[127.0245,37.8979],[127.0219,37.8985],[127.0208,37.9002],[127.0185,37.9019],[127.0148,37.9031],[127.0124,37.9032],[127.0105,37.905],[127.0105,37.9102],[127.008,37.912],[127.0062,37.9152],[127.0087,37.9173],[127.0122,37.9186],[127.0136,37.9209],[127.0112,37.9221],[127.0091,37.9257],[127.0097,37.9282],[127.0063,37.9297],[127.0052,37.9317],[127.003,37.9331],[127.001,37.9343],[127,37.9363],[126.9983,37.9346],[126.9965,37.9336],[126.9942,37.934],[126.9927,37.9357],[126.9893,37.9363],[126.9873,37.9366],[126.9861,37.9385],[126.9841,37.9387],[126.9794,37.9376],[126.9794,37.9376]]]}},{"type":"Feature","properties":{"name":"포천시","focus":true},"geometry":{"type":"Polygon","coordinates":[[[127.4305,38.1154],[127.4274,38.113],[127.4254,38.1111],[127.4251,38.109],[127.4217,38.1062],[127.4175,38.1039],[127.4144,38.1022],[127.4104,38.1029],[127.4055,38.103],[127.4055,38.1063],[127.4033,38.1103],[127.4035,38.113],[127.4007,38.1138],[127.3968,38.1133],[127.3942,38.1134],[127.3917,38.1145],[127.3877,38.1149],[127.3848,38.1142],[127.3833,38.1171],[127.3786,38.1184],[127.374,38.115],[127.3722,38.1137],[127.3718,38.1105],[127.37,38.1092],[127.3668,38.1082],[127.3643,38.1072],[127.3622,38.1071],[127.3563,38.106],[127.3544,38.1044],[127.3521,38.105],[127.3481,38.1048],[127.3452,38.1026],[127.341,38.1018],[127.3391,38.0985],[127.3383,38.0959],[127.3389,38.0927],[127.3376,38.0901],[127.3329,38.0914],[127.3303,38.0936],[127.3248,38.0946],[127.3207,38.0947],[127.319,38.0964],[127.3175,38.0983],[127.3163,38.102],[127.3144,38.1052],[127.3121,38.1094],[127.311,38.1143],[127.3102,38.1171],[127.3076,38.118],[127.3063,38.1163],[127.302,38.1152],[127.299,38.1159],[127.2961,38.1151],[127.2923,38.1143],[127.2896,38.1155],[127.2875,38.1152],[127.2846,38.1161],[127.2829,38.1181],[127.282,38.1203],[127.2831,38.1221],[127.2816,38.1235],[127.2765,38.1247],[127.2768,38.128],[127.2763,38.1303],[127.2763,38.1327],[127.2747,38.1339],[127.275,38.1373],[127.2797,38.1425],[127.2819,38.1437],[127.2843,38.1468],[127.2847,38.1495],[127.2864,38.1526],[127.284,38.1574],[127.284,38.1595],[127.2863,38.1605],[127.287,38.1637],[127.2887,38.166],[127.2882,38.168],[127.2907,38.1701],[127.2927,38.1718],[127.2962,38.1725],[127.298,38.1752],[127.294,38.1773],[127.2907,38.1769],[127.2877,38.1781],[127.2861,38.1795],[127.2839,38.1811],[127.2821,38.1824],[127.2785,38.1821],[127.2763,38.1824],[127.2735,38.1811],[127.2712,38.182],[127.2684,38.1803],[127.2647,38.1785],[127.2665,38.1758],[127.2644,38.1716],[127.2618,38.1702],[127.2587,38.1693],[127.2562,38.1643],[127.2527,38.1624],[127.2495,38.1608],[127.2477,38.1597],[127.2456,38.1583],[127.2419,38.1575],[127.2393,38.1565],[127.2372,38.1543],[127.2378,38.1512],[127.2357,38.1492],[127.2347,38.1471],[127.2313,38.1478],[127.2285,38.1476],[127.2263,38.1484],[127.2238,38.147],[127.2244,38.1436],[127.2241,38.1407],[127.2222,38.1395],[127.222,38.1374],[127.2192,38.1391],[127.217,38.1413],[127.2147,38.1426],[127.2126,38.1434],[127.2126,38.146],[127.2096,38.1467],[127.2059,38.1498],[127.2034,38.1522],[127.2014,38.1536],[127.1989,38.1557],[127.1952,38.1566],[127.1918,38.1594],[127.1889,38.1618],[127.1887,38.1641],[127.1876,38.167],[127.1875,38.1691],[127.1864,38.171],[127.1859,38.1739],[127.1868,38.1772],[127.1882,38.1792],[127.189,38.1811],[127.189,38.1837],[127.1893,38.1865],[127.1853,38.1876],[127.1833,38.1859],[127.1805,38.1861],[127.1786,38.1843],[127.1759,38.1816],[127.1752,38.1794],[127.1753,38.1768],[127.1741,38.1748],[127.174,38.1727],[127.1726,38.1704],[127.1729,38.1684],[127.1741,38.1655],[127.1747,38.1635],[127.1733,38.1613],[127.1751,38.1591],[127.1755,38.1547],[127.177,38.1525],[127.1762,38.1506],[127.1763,38.1483],[127.1738,38.1443],[127.1729,38.1412],[127.1745,38.1389],[127.1747,38.1358],[127.1749,38.1316],[127.1755,38.1295],[127.1742,38.1261],[127.1739,38.124],[127.1723,38.1224],[127.1731,38.1202],[127.1782,38.1189],[127.1806,38.1184],[127.1821,38.1158],[127.1829,38.1087],[127.1831,38.1051],[127.1828,38.1025],[127.1832,38.0995],[127.1839,38.0968],[127.1841,38.0948],[127.1842,38.0925],[127.1855,38.0905],[127.1872,38.0891],[127.1894,38.0866],[127.1911,38.0851],[127.1921,38.0832],[127.1917,38.0807],[127.1905,38.0784],[127.1894,38.0753],[127.1898,38.0706],[127.19,38.0674],[127.1893,38.0655],[127.1873,38.0644],[127.1835,38.0638],[127.1801,38.0649],[127.1779,38.0656],[127.1729,38.0663],[127.1708,38.0655],[127.1683,38.0633],[127.1664,38.0616],[127.164,38.0617],[127.1617,38.0627],[127.1585,38.0634],[127.1552,38.0621],[127.1518,38.0588],[127.1489,38.0578],[127.1463,38.0607],[127.1461,38.0628],[127.1476,38.0685],[127.1454,38.0714],[127.1434,38.0731],[127.1385,38.0701],[127.1382,38.0665],[127.1356,38.0654],[127.1335,38.0646],[127.1304,38.0617],[127.1283,38.0603],[127.1252,38.0601],[127.1203,38.0617],[127.1175,38.0611],[127.114,38.0565],[127.1129,38.053],[127.1119,38.0511],[127.1131,38.0487],[127.1147,38.0469],[127.1163,38.0453],[127.1179,38.0433],[127.1148,38.0399],[127.1187,38.0387],[127.1212,38.0389],[127.1232,38.0384],[127.1273,38.0374],[127.1293,38.0379],[127.1319,38.0384],[127.1367,38.038],[127.1374,38.0347],[127.136,38.0325],[127.1353,38.0296],[127.1378,38.0271],[127.1387,38.0252],[127.1388,38.0222],[127.14,38.0204],[127.1428,38.0181],[127.1453,38.0157],[127.1474,38.0147],[127.1461,38.012],[127.1467,38.0089],[127.147,38.0047],[127.1463,38.0024],[127.1455,37.9995],[127.1472,37.9965],[127.1457,37.9942],[127.1442,37.9922],[127.1417,37.9916],[127.1396,37.9916],[127.1375,37.9907],[127.1349,37.9895],[127.1332,37.9884],[127.1317,37.9861],[127.1298,37.9839],[127.1276,37.983],[127.1256,37.9824],[127.1224,37.9801],[127.1203,37.9789],[127.1192,37.9812],[127.118,37.9828],[127.1173,37.9849],[127.1148,37.9862],[127.113,37.9879],[127.109,37.9885],[127.1066,37.989],[127.1044,37.9894],[127.1015,37.9895],[127.0998,37.9873],[127.0975,37.9865],[127.0938,37.9848],[127.0908,37.9846],[127.0901,37.9823],[127.0915,37.9782],[127.0922,37.9762],[127.0919,37.9733],[127.0932,37.9696],[127.0942,37.9668],[127.0934,37.9649],[127.0937,37.9626],[127.0924,37.9598],[127.0939,37.9578],[127.0958,37.9559],[127.0983,37.9548],[127.0993,37.9529],[127.0979,37.9505],[127.0958,37.949],[127.0967,37.9467],[127.0962,37.9447],[127.0979,37.9427],[127.103,37.9415],[127.1059,37.9405],[127.1086,37.9396],[127.1093,37.937],[127.1116,37.9346],[127.1122,37.9318],[127.1155,37.9294],[127.1168,37.926],[127.1188,37.9227],[127.1204,37.9214],[127.1206,37.9192],[127.1215,37.9165],[127.1238,37.9162],[127.1264,37.9159],[127.1286,37.9168],[127.1332,37.916],[127.1351,37.9132],[127.1384,37.914],[127.1418,37.9129],[127.1439,37.9126],[127.1466,37.9108],[127.148,37.9068],[127.147,37.9049],[127.1466,37.9028],[127.1497,37.9016],[127.1493,37.8981],[127.154,37.8958],[127.1544,37.8938],[127.1535,37.8904],[127.1516,37.889],[127.149,37.8842],[127.1481,37.8812],[127.1479,37.8785],[127.1468,37.8762],[127.1436,37.8759],[127.1408,37.8759],[127.1382,37.8751],[127.135,37.8738],[127.1313,37.8734],[127.1283,37.874],[127.1262,37.872],[127.1236,37.87],[127.1232,37.867],[127.1197,37.8659],[127.1167,37.8661],[127.114,37.8655],[127.1116,37.8648],[127.1111,37.8626],[127.1096,37.8608],[127.1093,37.8578],[127.1099,37.8557],[127.1107,37.8536],[127.1124,37.8525],[127.1148,37.8505],[127.1164,37.8428],[127.1161,37.8398],[127.118,37.8366],[127.1172,37.8346],[127.1183,37.8322],[127.1205,37.8307],[127.1218,37.8283],[127.1222,37.8255],[127.1207,37.8207],[127.1203,37.8168],[127.1218,37.814],[127.122,37.812],[127.1196,37.8095],[127.1182,37.8072],[127.117,37.8044],[127.1175,37.8018],[127.1181,37.7997],[127.1174,37.7977],[127.115,37.7919],[127.1132,37.7888],[127.1103,37.7876],[127.1092,37.7854],[127.1059,37.7833],[127.1057,37.7803],[127.1083,37.7791],[127.1103,37.7795],[127.1151,37.777],[127.1159,37.7744],[127.1177,37.7727],[127.1201,37.774],[127.1221,37.7737],[127.1239,37.7728],[127.1288,37.7693],[127.1291,37.7671],[127.1276,37.7656],[127.1258,37.7643],[127.1295,37.7634],[127.1321,37.7633],[127.1337,37.7621],[127.1357,37.7627],[127.1381,37.7633],[127.1402,37.7634],[127.1415,37.7612],[127.1433,37.7581],[127.1443,37.756],[127.1468,37.756],[127.1529,37.7535],[127.1553,37.7511],[127.158,37.7492],[127.1638,37.7469],[127.1659,37.7473],[127.1679,37.7491],[127.17,37.7487],[127.1721,37.7496],[127.1733,37.7534],[127.1728,37.7557],[127.1725,37.7577],[127.1752,37.758],[127.1767,37.7594],[127.1782,37.7616],[127.1828,37.7644],[127.1853,37.7645],[127.1874,37.7628],[127.1895,37.7624],[127.1918,37.764],[127.1946,37.7626],[127.1967,37.7617],[127.1987,37.7632],[127.2005,37.7643],[127.2036,37.7647],[127.2051,37.7632],[127.2072,37.7639],[127.2079,37.7673],[127.2101,37.7693],[127.2132,37.7677],[127.2127,37.7647],[127.2129,37.7615],[127.2167,37.7597],[127.2201,37.7584],[127.2226,37.7578],[127.2225,37.7551],[127.2251,37.7535],[127.2283,37.7545],[127.2302,37.7565],[127.232,37.7577],[127.234,37.7589],[127.2358,37.7609],[127.2368,37.7628],[127.2389,37.7631],[127.2409,37.7628],[127.2429,37.7636],[127.2449,37.7641],[127.2467,37.7651],[127.2491,37.7656],[127.2514,37.7662],[127.2535,37.7675],[127.259,37.7687],[127.2615,37.7712],[127.2609,37.7735],[127.2623,37.7767],[127.264,37.7782],[127.2656,37.7804],[127.2683,37.7815],[127.268,37.7844],[127.2712,37.7873],[127.273,37.79],[127.2715,37.7914],[127.2707,37.7937],[127.2719,37.7961],[127.2744,37.7981],[127.2765,37.8021],[127.2785,37.8047],[127.2768,37.8065],[127.278,37.8098],[127.2788,37.814],[127.2793,37.8163],[127.278,37.8191],[127.2768,37.8214],[127.2772,37.8238],[127.275,37.8253],[127.2746,37.8285],[127.2758,37.8322],[127.2758,37.8357],[127.2779,37.8388],[127.2788,37.842],[127.2809,37.8441],[127.2838,37.8457],[127.2857,37.8476],[127.2839,37.8498],[127.2824,37.8522],[127.2804,37.8542],[127.2817,37.8566],[127.2843,37.8598],[127.2853,37.8617],[127.2859,37.8639],[127.2866,37.8666],[127.2913,37.8733],[127.2919,37.8754],[127.2942,37.8721],[127.2957,37.8697],[127.2982,37.8687],[127.301,37.8684],[127.3036,37.8687],[127.3061,37.8686],[127.3092,37.8679],[127.311,37.8661],[127.3134,37.8679],[127.3158,37.8678],[127.3186,37.8711],[127.3208,37.8716],[127.3229,37.8714],[127.3238,37.8756],[127.325,37.878],[127.3229,37.8787],[127.3225,37.8808],[127.3223,37.8848],[127.3224,37.8873],[127.3232,37.8893],[127.3262,37.8909],[127.3279,37.8929],[127.3275,37.8955],[127.3271,37.8994],[127.3264,37.9024],[127.3273,37.9045],[127.328,37.9064],[127.3296,37.9093],[127.3281,37.911],[127.328,37.9134],[127.3299,37.9163],[127.3287,37.9219],[127.33,37.9235],[127.3302,37.9256],[127.3324,37.9259],[127.3345,37.9248],[127.3372,37.9231],[127.3395,37.9235],[127.3413,37.9245],[127.3431,37.9254],[127.3449,37.9264],[127.3472,37.9253],[127.3482,37.9231],[127.3496,37.9216],[127.3516,37.9211],[127.3537,37.9218],[127.3565,37.9216],[127.3597,37.9237],[127.3617,37.925],[127.3637,37.9257],[127.3657,37.9262],[127.3659,37.9289],[127.3695,37.9302],[127.3709,37.9318],[127.372,37.9335],[127.3751,37.9368],[127.3779,37.9386],[127.3813,37.9403],[127.3828,37.9427],[127.3847,37.9457],[127.3831,37.9493],[127.3808,37.9505],[127.3788,37.9506],[127.3766,37.9532],[127.3781,37.9556],[127.3793,37.9572],[127.3775,37.9596],[127.3767,37.9616],[127.3772,37.9641],[127.3797,37.9666],[127.3823,37.9699],[127.3823,37.9724],[127.3848,37.9755],[127.3842,37.9804],[127.3849,37.9823],[127.3876,37.9839],[127.3898,37.9829],[127.3911,37.9845],[127.3932,37.986],[127.3952,37.9875],[127.3976,37.9887],[127.4001,37.9895],[127.4026,37.9906],[127.4052,37.9903],[127.4066,37.992],[127.4074,37.9941],[127.4089,37.9961],[127.4115,37.9971],[127.413,37.9987],[127.415,38.0024],[127.4147,38.0051],[127.4162,38.0083],[127.417,38.0105],[127.4188,38.0119],[127.4185,38.0147],[127.4198,38.0174],[127.4216,38.0193],[127.4235,38.0203],[127.4256,38.0229],[127.4262,38.025],[127.4271,38.0274],[127.4261,38.0296],[127.4241,38.0309],[127.4247,38.0335],[127.427,38.0337],[127.429,38.0347],[127.4315,38.0354],[127.4357,38.0384],[127.4388,38.0413],[127.4402,38.0437],[127.4431,38.0473],[127.4448,38.0487],[127.4462,38.0512],[127.4467,38.0542],[127.4446,38.0573],[127.4446,38.0598],[127.4461,38.064],[127.4467,38.0672],[127.4467,38.0712],[127.4459,38.0731],[127.4445,38.0748],[127.4464,38.0776],[127.4471,38.0807],[127.4466,38.0829],[127.4464,38.0856],[127.4448,38.088],[127.4459,38.0927],[127.4452,38.0947],[127.4452,38.0975],[127.4423,38.1019],[127.4414,38.1068],[127.4405,38.1088],[127.4375,38.1105],[127.4343,38.1106],[127.4323,38.1134],[127.4305,38.1154],[127.4305,38.1154]]]}},{"type":"Feature","properties":{"name":"철원군","focus":false},"geometry":{"type":"Polygon","coordinates":[[[127.8737,38.3171],[127.8709,38.3149],[127.8656,38.3144],[127.8623,38.3139],[127.8595,38.3128],[127.8567,38.312],[127.8537,38.3128],[127.8515,38.3142],[127.8478,38.3125],[127.8443,38.3107],[127.8421,38.3101],[127.8393,38.3086],[127.8362,38.3073],[127.8331,38.3066],[127.8281,38.3052],[127.8226,38.3038],[127.8209,38.3066],[127.8148,38.3118],[127.8094,38.3155],[127.8069,38.3167],[127.8013,38.3207],[127.7979,38.3237],[127.7964,38.3253],[127.7946,38.3283],[127.7899,38.3368],[127.7882,38.3393],[127.7864,38.3444],[127.7846,38.348],[127.7807,38.3491],[127.7789,38.3481],[127.7774,38.3463],[127.7754,38.343],[127.772,38.3411],[127.7718,38.3376],[127.77,38.3354],[127.7679,38.336],[127.7652,38.3359],[127.7633,38.3379],[127.7601,38.3381],[127.7584,38.337],[127.7567,38.3355],[127.7541,38.3343],[127.7501,38.3352],[127.7464,38.3375],[127.745,38.3395],[127.7431,38.3408],[127.7377,38.3401],[127.7354,38.3392],[127.7317,38.3366],[127.7292,38.3351],[127.7242,38.3341],[127.7204,38.3319],[127.7182,38.3303],[127.7149,38.3308],[127.7137,38.3345],[127.7053,38.3355],[127.7014,38.337],[127.6962,38.3348],[127.6952,38.333],[127.6928,38.3297],[127.692,38.3272],[127.6899,38.3248],[127.6875,38.3247],[127.6834,38.3251],[127.6814,38.3251],[127.6793,38.3245],[127.6758,38.3242],[127.6714,38.3235],[127.6691,38.3226],[127.6676,38.3245],[127.6652,38.3261],[127.6623,38.3248],[127.6587,38.3247],[127.6563,38.3249],[127.6511,38.3254],[127.648,38.3256],[127.6436,38.3239],[127.64,38.3226],[127.6374,38.3221],[127.6352,38.3225],[127.6333,38.3253],[127.6296,38.3252],[127.6258,38.3256],[127.6196,38.3241],[127.6164,38.3248],[127.6146,38.3278],[127.6125,38.3313],[127.6118,38.3335],[127.6095,38.3355],[127.5777,38.3356],[127.5744,38.334],[127.5732,38.3324],[127.5688,38.3309],[127.5665,38.3297],[127.5605,38.3278],[127.5549,38.3269],[127.5492,38.3252],[127.5462,38.3228],[127.5433,38.3201],[127.5411,38.3184],[127.5376,38.3164],[127.5355,38.3162],[127.5329,38.315],[127.529,38.3114],[127.5243,38.3087],[127.5212,38.3084],[127.518,38.3075],[127.5157,38.3049],[127.5123,38.3036],[127.5086,38.302],[127.504,38.3008],[127.5013,38.3008],[127.499,38.2994],[127.4962,38.2994],[127.4922,38.3033],[127.4893,38.3056],[127.4861,38.3066],[127.4833,38.306],[127.4815,38.3069],[127.4801,38.3089],[127.4783,38.3126],[127.4767,38.315],[127.4742,38.3162],[127.4711,38.3162],[127.4677,38.3166],[127.4638,38.3162],[127.4581,38.3172],[127.4548,38.3179],[127.4527,38.3169],[127.4479,38.3159],[127.4412,38.3174],[127.437,38.3193],[127.434,38.3204],[127.4274,38.3259],[127.4199,38.3274],[127.4145,38.329],[127.4089,38.3312],[127.4058,38.3322],[127.3996,38.3323],[127.3955,38.3319],[127.3902,38.3321],[127.3875,38.3348],[127.3822,38.3354],[127.3771,38.3328],[127.3741,38.3307],[127.3657,38.3262],[127.3637,38.3257],[127.3624,38.3233],[127.359,38.3251],[127.3559,38.327],[127.3515,38.3267],[127.3478,38.3281],[127.3431,38.3254],[127.3389,38.324],[127.336,38.3224],[127.3298,38.3182],[127.3267,38.3178],[127.3245,38.3193],[127.3214,38.3196],[127.3193,38.3188],[127.3149,38.3181],[127.3123,38.3172],[127.3096,38.3165],[127.3064,38.3165],[127.3038,38.3144],[127.302,38.3134],[127.2996,38.3114],[127.2979,38.3155],[127.2956,38.3176],[127.2932,38.3207],[127.2873,38.3235],[127.2808,38.3248],[127.2772,38.3252],[127.266,38.327],[127.26,38.3275],[127.2546,38.3277],[127.2483,38.3292],[127.246,38.3307],[127.2422,38.3328],[127.2377,38.3318],[127.2277,38.3294],[127.2235,38.3279],[127.2218,38.326],[127.2187,38.324],[127.2133,38.3218],[127.2079,38.3194],[127.2049,38.3183],[127.1995,38.3167],[127.1951,38.3153],[127.1877,38.3133],[127.1837,38.3122],[127.1746,38.3096],[127.172,38.3086],[127.1643,38.3063],[127.162,38.3058],[127.1557,38.3038],[127.1521,38.3029],[127.1504,38.3046],[127.1467,38.3087],[127.1448,38.3104],[127.1427,38.3116],[127.141,38.3133],[127.1391,38.3142],[127.1349,38.3137],[127.1321,38.3123],[127.1309,38.3103],[127.1301,38.3061],[127.128,38.3008],[127.1266,38.2991],[127.1235,38.299],[127.1211,38.2988],[127.1188,38.2976],[127.1158,38.297],[127.1113,38.2956],[127.1089,38.2938],[127.106,38.2907],[127.103,38.2884],[127.1006,38.2856],[127.0971,38.2853],[127.0962,38.2829],[127.1006,38.281],[127.1032,38.2808],[127.104,38.2781],[127.101,38.2756],[127.102,38.2732],[127.1053,38.2722],[127.1088,38.2718],[127.1107,38.271],[127.1093,38.2694],[127.1091,38.2673],[127.1092,38.2632],[127.108,38.2611],[127.1081,38.2583],[127.1097,38.2546],[127.1107,38.2527],[127.1107,38.2489],[127.1114,38.2467],[127.1096,38.2442],[127.1099,38.2418],[127.1119,38.2404],[127.1123,38.2384],[127.1136,38.2368],[127.1168,38.237],[127.1196,38.235],[127.1222,38.2335],[127.125,38.2334],[127.128,38.2335],[127.1306,38.2328],[127.1326,38.2336],[127.1351,38.2341],[127.1351,38.2365],[127.1389,38.2366],[127.1409,38.2377],[127.1433,38.2375],[127.1447,38.2391],[127.1473,38.2402],[127.1483,38.2421],[127.151,38.2422],[127.1532,38.2419],[127.1579,38.239],[127.1601,38.239],[127.1633,38.2385],[127.1615,38.2348],[127.1629,38.2324],[127.1617,38.2296],[127.1601,38.2263],[127.1618,38.2236],[127.1606,38.2202],[127.1645,38.216],[127.1682,38.2146],[127.1712,38.2135],[127.1721,38.2097],[127.1751,38.2055],[127.1742,38.2032],[127.1726,38.2013],[127.1706,38.1991],[127.1726,38.1954],[127.1759,38.1909],[127.1791,38.1874],[127.1833,38.1859],[127.1853,38.1876],[127.1883,38.1878],[127.1884,38.1842],[127.189,38.1811],[127.1882,38.1792],[127.1868,38.1772],[127.1859,38.1739],[127.1869,38.1721],[127.1875,38.1691],[127.1876,38.167],[127.1887,38.1641],[127.1889,38.1618],[127.1908,38.1597],[127.1948,38.1575],[127.1989,38.1557],[127.2014,38.1536],[127.2034,38.1522],[127.2059,38.1498],[127.2083,38.1472],[127.2113,38.1469],[127.2126,38.1434],[127.2147,38.1426],[127.217,38.1413],[127.2192,38.1391],[127.222,38.1374],[127.2222,38.1395],[127.2241,38.1407],[127.2236,38.1432],[127.2238,38.1452],[127.2247,38.1479],[127.2285,38.1476],[127.2313,38.1478],[127.2347,38.1471],[127.2357,38.1492],[127.2378,38.1512],[127.2383,38.1535],[127.2388,38.1555],[127.2419,38.1575],[127.244,38.1575],[127.2459,38.1589],[127.2478,38.1604],[127.2523,38.162],[127.2561,38.163],[127.2586,38.1683],[127.2601,38.1704],[127.2632,38.1707],[127.2665,38.1758],[127.2651,38.1773],[127.2667,38.1806],[127.2701,38.1819],[127.2735,38.1811],[127.2763,38.1824],[127.2785,38.1821],[127.2821,38.1824],[127.2839,38.1811],[127.2861,38.1803],[127.2877,38.1781],[127.2907,38.1769],[127.294,38.1773],[127.2967,38.1767],[127.2962,38.1725],[127.2942,38.1717],[127.2907,38.1701],[127.2882,38.168],[127.2887,38.166],[127.287,38.1637],[127.287,38.1614],[127.2846,38.1604],[127.284,38.1574],[127.2864,38.1526],[127.2847,38.1495],[127.2843,38.1468],[127.2819,38.1437],[127.2797,38.1425],[127.2759,38.1389],[127.2746,38.1358],[127.2763,38.1327],[127.2763,38.1303],[127.2768,38.128],[127.2757,38.1249],[127.2806,38.1251],[127.2824,38.1223],[127.282,38.1203],[127.2823,38.1183],[127.2846,38.1161],[127.2865,38.1148],[127.2886,38.1164],[127.2917,38.1154],[127.2945,38.1151],[127.2971,38.1159],[127.3006,38.1152],[127.3063,38.1163],[127.3076,38.118],[127.3098,38.118],[127.3114,38.1159],[127.3126,38.1104],[127.3135,38.106],[127.3163,38.102],[127.3163,38.0986],[127.319,38.0964],[127.3207,38.0947],[127.3234,38.0949],[127.3287,38.0944],[127.3329,38.0914],[127.336,38.0903],[127.3389,38.0927],[127.3383,38.0959],[127.3391,38.0985],[127.3393,38.1008],[127.3452,38.1026],[127.3465,38.1042],[127.3507,38.1041],[127.3534,38.1042],[127.3563,38.106],[127.361,38.1067],[127.3643,38.1072],[127.3668,38.1082],[127.37,38.1092],[127.3718,38.1105],[127.3724,38.1127],[127.374,38.115],[127.3771,38.1178],[127.3817,38.1169],[127.3839,38.1158],[127.386,38.1148],[127.3917,38.1145],[127.3942,38.1134],[127.3962,38.1139],[127.4007,38.1138],[127.4035,38.113],[127.4037,38.1109],[127.4044,38.1069],[127.4055,38.103],[127.4104,38.1029],[127.4134,38.102],[127.4166,38.1036],[127.4204,38.1061],[127.4251,38.109],[127.4254,38.1111],[127.4274,38.113],[127.4305,38.1154],[127.4329,38.1183],[127.4349,38.1192],[127.4368,38.1205],[127.4419,38.1244],[127.4445,38.1238],[127.4453,38.1217],[127.4471,38.1197],[127.4459,38.1171],[127.4495,38.1178],[127.4529,38.1173],[127.4542,38.1206],[127.4569,38.1217],[127.459,38.1232],[127.4622,38.123],[127.4689,38.1252],[127.4718,38.1244],[127.4744,38.1247],[127.4777,38.125],[127.4811,38.1248],[127.4843,38.1252],[127.4886,38.1279],[127.4919,38.1306],[127.4953,38.133],[127.496,38.1367],[127.4976,38.1403],[127.4998,38.1415],[127.5018,38.1437],[127.5022,38.1468],[127.5004,38.1509],[127.4969,38.1522],[127.495,38.1531],[127.4936,38.1553],[127.4907,38.1592],[127.4945,38.1621],[127.4956,38.1651],[127.4971,38.1673],[127.501,38.171],[127.5042,38.1735],[127.5039,38.1774],[127.5047,38.1805],[127.5038,38.1849],[127.5059,38.1908],[127.5067,38.1927],[127.5071,38.1948],[127.508,38.1979],[127.5109,38.1992],[127.5135,38.1996],[127.5171,38.199],[127.5202,38.2],[127.5245,38.2006],[127.5269,38.2036],[127.5299,38.2085],[127.5316,38.2106],[127.5351,38.2107],[127.5404,38.2152],[127.5424,38.2168],[127.5404,38.2196],[127.5391,38.222],[127.5394,38.2247],[127.5419,38.2292],[127.5432,38.2308],[127.5493,38.2314],[127.5527,38.2321],[127.5567,38.2321],[127.5587,38.2325],[127.5609,38.2342],[127.5642,38.2364],[127.5665,38.2383],[127.5684,38.2414],[127.5696,38.2459],[127.5701,38.249],[127.5766,38.2524],[127.5786,38.2538],[127.579,38.2562],[127.5811,38.2569],[127.5848,38.2578],[127.5873,38.2571],[127.5893,38.2574],[127.5911,38.2604],[127.5939,38.2611],[127.5973,38.2627],[127.5979,38.2649],[127.5975,38.267],[127.5986,38.2699],[127.5963,38.2712],[127.594,38.2758],[127.594,38.2779],[127.5958,38.2802],[127.5985,38.2825],[127.6022,38.2829],[127.6074,38.2847],[127.6079,38.2817],[127.6108,38.2784],[127.613,38.2761],[127.6183,38.2741],[127.6199,38.2723],[127.6197,38.2695],[127.6227,38.2674],[127.6247,38.2651],[127.6271,38.2639],[127.6294,38.2638],[127.632,38.263],[127.6346,38.2614],[127.6369,38.2612],[127.6389,38.2624],[127.6425,38.2618],[127.6453,38.2617],[127.6481,38.2598],[127.6508,38.261],[127.6546,38.2624],[127.6574,38.2628],[127.6599,38.2638],[127.6628,38.2638],[127.6678,38.2633],[127.672,38.2639],[127.6747,38.2604],[127.6776,38.2583],[127.6804,38.2541],[127.6828,38.2523],[127.6862,38.2515],[127.6896,38.2494],[127.6965,38.2486],[127.7046,38.2481],[127.7099,38.2507],[127.7131,38.2504],[127.7129,38.2541],[127.7123,38.2569],[127.7122,38.2593],[127.7153,38.2608],[127.7194,38.2636],[127.7209,38.265],[127.7224,38.2678],[127.7233,38.2707],[127.7272,38.2744],[127.7289,38.2764],[127.7329,38.2787],[127.7356,38.2782],[127.7399,38.2793],[127.7421,38.2802],[127.7456,38.2812],[127.7506,38.2833],[127.7541,38.2836],[127.7588,38.2833],[127.7637,38.2846],[127.7677,38.2854],[127.7728,38.2856],[127.7775,38.2867],[127.7822,38.2881],[127.7856,38.2855],[127.79,38.2826],[127.7916,38.2803],[127.7958,38.278],[127.7987,38.2778],[127.8016,38.2772],[127.8047,38.2831],[127.8065,38.2852],[127.809,38.2871],[127.8115,38.288],[127.8165,38.288],[127.821,38.2876],[127.8262,38.2864],[127.8308,38.2861],[127.8337,38.2869],[127.8376,38.2873],[127.8446,38.2838],[127.8487,38.2842],[127.8523,38.2846],[127.8544,38.2843],[127.8567,38.2834],[127.8608,38.2826],[127.8633,38.2847],[127.8657,38.2872],[127.8709,38.2889],[127.8731,38.2903],[127.8752,38.2921],[127.8774,38.2964],[127.8788,38.2983],[127.8806,38.3002],[127.8831,38.3032],[127.8851,38.3041],[127.887,38.3058],[127.8885,38.3088],[127.8825,38.3104],[127.8795,38.3122],[127.8749,38.3169],[127.8737,38.3171]]]}}]}